start=new Date('2022-11-14T00:00:00.000Z').valueOf();
sats=[{"FILE":"3653238","REF_FRAME":"TEME","COUNTRY_CODE":"US","OBJECT_TYPE":"PAYLOAD","MEAN_ANOMALY":"304.2775","RCS_SIZE":"LARGE","OBJECT_NAME":"STARLINK-4140","EPOCH":"2022-11-13T03:40:14.554272","ARG_OF_PERICENTER":"55.8391","REV_AT_EPOCH":"1801","GP_ID":"217628520","RA_OF_ASC_NODE":"237.3941","TLE_LINE1":"1 53259U 22086T   22317.15294623  .00003534  00000-0  24007-3 0  9990","ELEMENT_SET_NO":"999","APOAPSIS":"541.031","CENTER_NAME":"EARTH","LAUNCH_DATE":"2022-07-24","SEMIMAJOR_AXIS":"6917.896","INCLINATION":"53.2174","ECCENTRICITY":"0.00018350","EPHEMERIS_TYPE":"0","PERIOD":"95.438","PERIAPSIS":"538.492","MEAN_MOTION_DDOT":"0.0000000000000","MEAN_MOTION_DOT":"0.00003534","BSTAR":"0.00024007000000","TLE_LINE2":"2 53259  53.2174 237.3941 0001835  55.8391 304.2775 15.08834800 18010","TIME_SYSTEM":"UTC","NORAD_CAT_ID":"53259","MEAN_ELEMENT_THEORY":"SGP4","DECAY_DATE":null,"OBJECT_ID":"2022-086T","MEAN_MOTION":"15.08834800","SITE":"AFETR","CLASSIFICATION_TYPE":"U"},{"APOAPSIS":"540.803","CENTER_NAME":"EARTH","ELEMENT_SET_NO":"999","REV_AT_EPOCH":"1810","GP_ID":"217695596","RA_OF_ASC_NODE":"234.7028","TLE_LINE1":"1 53260U 22086U   22317.75550347  .00009232  00000-0  59722-3 0  9999","ARG_OF_PERICENTER":"71.7356","OBJECT_NAME":"STARLINK-4136","EPOCH":"2022-11-13T18:07:55.499808","OBJECT_TYPE":"PAYLOAD","MEAN_ANOMALY":"288.3806","RCS_SIZE":"LARGE","FILE":"3653957","REF_FRAME":"TEME","COUNTRY_CODE":"US","CLASSIFICATION_TYPE":"U","OBJECT_ID":"2022-086U","MEAN_MOTION":"15.08849003","SITE":"AFETR","DECAY_DATE":null,"BSTAR":"0.00059722000000","TLE_LINE2":"2 53260  53.2146 234.7028 0001568  71.7356 288.3806 15.08849003 18107","TIME_SYSTEM":"UTC","NORAD_CAT_ID":"53260","MEAN_ELEMENT_THEORY":"SGP4","PERIAPSIS":"538.633","MEAN_MOTION_DDOT":"0.0000000000000","MEAN_MOTION_DOT":"0.00009232","PERIOD":"95.437","EPHEMERIS_TYPE":"0","SEMIMAJOR_AXIS":"6917.853","LAUNCH_DATE":"2022-07-24","ECCENTRICITY":"0.00015680","INCLINATION":"53.2146"},{"ECCENTRICITY":"0.00015930","INCLINATION":"53.2163","SEMIMAJOR_AXIS":"6917.811","LAUNCH_DATE":"2022-07-24","EPHEMERIS_TYPE":"0","PERIOD":"95.436","MEAN_MOTION_DOT":"0.00003844","PERIAPSIS":"538.574","MEAN_MOTION_DDOT":"0.0000000000000","NORAD_CAT_ID":"53261","TIME_SYSTEM":"UTC","MEAN_ELEMENT_THEORY":"SGP4","BSTAR":"0.00025929000000","TLE_LINE2":"2 53261  53.2163 237.1321 0001593  67.1334 292.9826 15.08862689 18022","DECAY_DATE":null,"MEAN_MOTION":"15.08862689","SITE":"AFETR","OBJECT_ID":"2022-086V","CLASSIFICATION_TYPE":"U","COUNTRY_CODE":"US","FILE":"3653238","REF_FRAME":"TEME","OBJECT_TYPE":"PAYLOAD","MEAN_ANOMALY":"292.9826","RCS_SIZE":"LARGE","OBJECT_NAME":"STARLINK-4062","EPOCH":"2022-11-13T05:03:38.898432","ARG_OF_PERICENTER":"67.1334","GP_ID":"217629093","RA_OF_ASC_NODE":"237.1321","TLE_LINE1":"1 53261U 22086V   22317.21086688  .00003844  00000-0  25929-3 0  9998","REV_AT_EPOCH":"1802","ELEMENT_SET_NO":"999","APOAPSIS":"540.778","CENTER_NAME":"EARTH"},{"INCLINATION":"53.2163","ECCENTRICITY":"0.00015660","LAUNCH_DATE":"2022-07-24","SEMIMAJOR_AXIS":"6917.880","EPHEMERIS_TYPE":"0","PERIOD":"95.438","MEAN_MOTION_DOT":"0.00001139","MEAN_MOTION_DDOT":"0.0000000000000","PERIAPSIS":"538.662","MEAN_ELEMENT_THEORY":"SGP4","TIME_SYSTEM":"UTC","NORAD_CAT_ID":"53262","TLE_LINE2":"2 53262  53.2163 236.8045 0001566  61.8405 298.2745 15.08840040 17858","BSTAR":"0.00008966900000","DECAY_DATE":null,"SITE":"AFETR","MEAN_MOTION":"15.08840040","OBJECT_ID":"2022-086W","CLASSIFICATION_TYPE":"U","COUNTRY_CODE":"US","REF_FRAME":"TEME","FILE":"3653511","RCS_SIZE":"LARGE","OBJECT_TYPE":"PAYLOAD","MEAN_ANOMALY":"298.2745","EPOCH":"2022-11-13T06:49:37.431264","OBJECT_NAME":"STARLINK-4085","ARG_OF_PERICENTER":"61.8405","TLE_LINE1":"1 53262U 22086W   22317.28446101  .00001139  00000-0  89669-4 0  9993","GP_ID":"217661196","RA_OF_ASC_NODE":"236.8045","REV_AT_EPOCH":"1785","ELEMENT_SET_NO":"999","CENTER_NAME":"EARTH","APOAPSIS":"540.829"},{"EPHEMERIS_TYPE":"0","INCLINATION":"53.2168","ECCENTRICITY":"0.00019510","SEMIMAJOR_AXIS":"6917.881","LAUNCH_DATE":"2022-07-24","MEAN_MOTION_DOT":"-0.00007634","MEAN_MOTION_DDOT":"0.0000000000000","PERIAPSIS":"538.396","PERIOD":"95.438","DECAY_DATE":null,"MEAN_ELEMENT_THEORY":"SGP4","TIME_SYSTEM":"UTC","NORAD_CAT_ID":"53263","TLE_LINE2":"2 53263  53.2168 234.4733 0001951  73.2100 286.9106 15.08839900 18117","BSTAR":"-0.00046200000000","CLASSIFICATION_TYPE":"U","SITE":"AFETR","MEAN_MOTION":"15.08839900","OBJECT_ID":"2022-086X","COUNTRY_CODE":"US","REF_FRAME":"TEME","FILE":"3653957","EPOCH":"2022-11-13T19:16:49.460736","OBJECT_NAME":"STARLINK-4130","RCS_SIZE":"LARGE","MEAN_ANOMALY":"286.9106","OBJECT_TYPE":"PAYLOAD","TLE_LINE1":"1 53263U 22086X   22317.80335024 -.00007634  00000-0 -46200-3 0  9994","GP_ID":"217694843","RA_OF_ASC_NODE":"234.4733","REV_AT_EPOCH":"1811","ARG_OF_PERICENTER":"73.2100","CENTER_NAME":"EARTH","APOAPSIS":"541.095","ELEMENT_SET_NO":"999"},{"OBJECT_ID":"2022-086Y","SITE":"AFETR","MEAN_MOTION":"15.08829564","CLASSIFICATION_TYPE":"U","TLE_LINE2":"2 53264  53.2160 234.7368 0001427  68.2772 291.8372 15.08829564 18108","BSTAR":"-0.00010148000000","MEAN_ELEMENT_THEORY":"SGP4","TIME_SYSTEM":"UTC","NORAD_CAT_ID":"53264","DECAY_DATE":null,"PERIOD":"95.438","MEAN_MOTION_DDOT":"0.0000000000000","PERIAPSIS":"538.790","MEAN_MOTION_DOT":"-0.00001902","SEMIMAJOR_AXIS":"6917.912","LAUNCH_DATE":"2022-07-24","INCLINATION":"53.2160","ECCENTRICITY":"0.00014270","EPHEMERIS_TYPE":"0","ELEMENT_SET_NO":"999","CENTER_NAME":"EARTH","APOAPSIS":"540.764","ARG_OF_PERICENTER":"68.2772","REV_AT_EPOCH":"1810","TLE_LINE1":"1 53264U 22086Y   22317.74447390 -.00001902  00000-0 -10148-3 0  9992","RA_OF_ASC_NODE":"234.7368","GP_ID":"217695859","RCS_SIZE":"LARGE","MEAN_ANOMALY":"291.8372","OBJECT_TYPE":"PAYLOAD","EPOCH":"2022-11-13T17:52:02.544960","OBJECT_NAME":"STARLINK-3950","REF_FRAME":"TEME","FILE":"3653957","COUNTRY_CODE":"US"},{"ELEMENT_SET_NO":"999","APOAPSIS":"540.969","CENTER_NAME":"EARTH","ARG_OF_PERICENTER":"33.0948","GP_ID":"217695427","RA_OF_ASC_NODE":"234.5077","TLE_LINE1":"1 53265U 22086Z   22317.79598598 -.00003721  00000-0 -21584-3 0  9992","REV_AT_EPOCH":"1811","MEAN_ANOMALY":"327.0152","OBJECT_TYPE":"PAYLOAD","RCS_SIZE":"LARGE","OBJECT_NAME":"STARLINK-4097","EPOCH":"2022-11-13T19:06:13.188672","COUNTRY_CODE":"US","FILE":"3653957","REF_FRAME":"TEME","MEAN_MOTION":"15.08831087","SITE":"AFETR","OBJECT_ID":"2022-086Z","CLASSIFICATION_TYPE":"U","NORAD_CAT_ID":"53265","TIME_SYSTEM":"UTC","MEAN_ELEMENT_THEORY":"SGP4","BSTAR":"-0.00021584000000","TLE_LINE2":"2 53265  53.2170 234.5077 0001729  33.0948 327.0152 15.08831087 18117","DECAY_DATE":null,"PERIOD":"95.438","MEAN_MOTION_DOT":"-0.00003721","PERIAPSIS":"538.577","MEAN_MOTION_DDOT":"0.0000000000000","ECCENTRICITY":"0.00017290","INCLINATION":"53.2170","SEMIMAJOR_AXIS":"6917.908","LAUNCH_DATE":"2022-07-24","EPHEMERIS_TYPE":"0"},{"APOAPSIS":"540.844","CENTER_NAME":"EARTH","ELEMENT_SET_NO":"999","REV_AT_EPOCH":"1802","GP_ID":"217628351","RA_OF_ASC_NODE":"237.1689","TLE_LINE1":"1 53266U 22086AA  22317.20350151  .00001214  00000-0  94337-4 0  9990","ARG_OF_PERICENTER":"60.2719","OBJECT_NAME":"STARLINK-4058","EPOCH":"2022-11-13T04:53:02.530464","OBJECT_TYPE":"PAYLOAD","MEAN_ANOMALY":"299.8430","RCS_SIZE":"LARGE","FILE":"3653238","REF_FRAME":"TEME","COUNTRY_CODE":"US","CLASSIFICATION_TYPE":"U","OBJECT_ID":"2022-086AA","MEAN_MOTION":"15.08837649","SITE":"AFETR","DECAY_DATE":null,"BSTAR":"0.00009433700000","TLE_LINE2":"2 53266  53.2169 237.1689 0001577  60.2719 299.8430 15.08837649 18028","NORAD_CAT_ID":"53266","TIME_SYSTEM":"UTC","MEAN_ELEMENT_THEORY":"SGP4","PERIAPSIS":"538.662","MEAN_MOTION_DDOT":"0.0000000000000","MEAN_MOTION_DOT":"0.00001214","PERIOD":"95.438","EPHEMERIS_TYPE":"0","LAUNCH_DATE":"2022-07-24","SEMIMAJOR_AXIS":"6917.888","INCLINATION":"53.2169","ECCENTRICITY":"0.00015770"},{"TLE_LINE1":"1 53267U 22086AB  22317.19245447  .00000525  00000-0  51058-4 0  9997","GP_ID":"217628521","RA_OF_ASC_NODE":"237.2277","REV_AT_EPOCH":"1802","ARG_OF_PERICENTER":"40.2070","CENTER_NAME":"EARTH","APOAPSIS":"541.071","ELEMENT_SET_NO":"999","COUNTRY_CODE":"US","REF_FRAME":"TEME","FILE":"3653238","EPOCH":"2022-11-13T04:37:08.066208","OBJECT_NAME":"STARLINK-4060","RCS_SIZE":"LARGE","OBJECT_TYPE":"PAYLOAD","MEAN_ANOMALY":"319.9072","DECAY_DATE":null,"MEAN_ELEMENT_THEORY":"SGP4","TIME_SYSTEM":"UTC","NORAD_CAT_ID":"53267","TLE_LINE2":"2 53267  53.2179 237.2277 0002027  40.2070 319.9072 15.08865020 18023","BSTAR":"0.00005105800000","CLASSIFICATION_TYPE":"U","SITE":"AFETR","MEAN_MOTION":"15.08865020","OBJECT_ID":"2022-086AB","EPHEMERIS_TYPE":"0","INCLINATION":"53.2179","ECCENTRICITY":"0.00020270","SEMIMAJOR_AXIS":"6917.804","LAUNCH_DATE":"2022-07-24","MEAN_MOTION_DOT":"0.00000525","MEAN_MOTION_DDOT":"0.0000000000000","PERIAPSIS":"538.267","PERIOD":"95.436"},{"REV_AT_EPOCH":"1811","GP_ID":"217695597","RA_OF_ASC_NODE":"234.5265","TLE_LINE1":"1 53268U 22086AC  22317.79232107 -.00002700  00000-0 -15167-3 0  9992","ARG_OF_PERICENTER":"54.6101","APOAPSIS":"540.535","CENTER_NAME":"EARTH","ELEMENT_SET_NO":"999","FILE":"3653957","REF_FRAME":"TEME","COUNTRY_CODE":"US","OBJECT_NAME":"STARLINK-4109","EPOCH":"2022-11-13T19:00:56.540448","OBJECT_TYPE":"PAYLOAD","MEAN_ANOMALY":"305.4994","RCS_SIZE":"LARGE","DECAY_DATE":null,"BSTAR":"-0.00015167000000","TLE_LINE2":"2 53268  53.2175 234.5265 0001097  54.6101 305.4994 15.08830020 18112","TIME_SYSTEM":"UTC","NORAD_CAT_ID":"53268","MEAN_ELEMENT_THEORY":"SGP4","CLASSIFICATION_TYPE":"U","OBJECT_ID":"2022-086AC","MEAN_MOTION":"15.08830020","SITE":"AFETR","EPHEMERIS_TYPE":"0","SEMIMAJOR_AXIS":"6917.911","LAUNCH_DATE":"2022-07-24","ECCENTRICITY":"0.00010970","INCLINATION":"53.2175","PERIAPSIS":"539.017","MEAN_MOTION_DDOT":"0.0000000000000","MEAN_MOTION_DOT":"-0.00002700","PERIOD":"95.438"}];
